NORAD_CAT_ID,OBJECT_NAME,OBJECT_TYPE,EPOCH,MEAN_MOTION,ECCENTRICITY,INCLINATION,RA_OF_ASC_NODE,ARG_OF_PERICENTER,MEAN_ANOMALY,BSTAR,MEAN_MOTION_DOT,MEAN_MOTION_DDOT,TLE_LINE0,TLE_LINE1,TLE_LINE2,SEMIMAJOR_AXIS,PERIOD,APOGEE,PERIGEE,DECAYED
51972.0,STARLINK-3671,PAYLOAD,2023-05-27 14:57:44,15.05585707,9.47e-05,53.0944,276.2991,89.4666,270.6432,7.7032e-05,8.44e-06,0.0,0 STARLINK-3671,1 51972U 22025S   23147.62342662  .00000844  00000-0  77032-4 0  9992,2 51972  53.0944 276.2991 0000947  89.4666 270.6432 15.05585707 67635,6927.845,95.644,550.366,549.054,0.0
51972.0,STARLINK-3671,PAYLOAD,2023-05-28 02:06:52,15.0558823,9.48e-05,53.0944,274.2176,88.7897,271.3201,7.9774e-05,8.84e-06,0.0,0 STARLINK-3671,1 51972U 22025S   23148.08810414  .00000884  00000-0  79774-4 0  9997,2 51972  53.0944 274.2176 0000948  88.7897 271.3201 15.05588230 68803,6927.838,95.644,550.359,549.046,0.0
51972.0,STARLINK-3671,PAYLOAD,2023-05-28 13:16:00,15.05585473,9.58e-05,53.0941,272.1361,87.933,272.1769,8.0036e-05,8.87e-06,0.0,0 STARLINK-3671,1 51972U 22025S   23148.55278573  .00000887  00000-0  80036-4 0  9999,2 51972  53.0941 272.1361 0000958  87.9330 272.1769 15.05585473 67776,6927.846,95.644,550.375,549.047,0.0
51972.0,STARLINK-3671,PAYLOAD,2023-05-29 08:23:06,15.05588559,9.73e-05,53.0934,268.5675,87.4971,272.6129,9.6668e-05,1.13e-05,0.0,0 STARLINK-3671,1 51972U 22025S   23149.34937661  .00001130  00000-0  96668-4 0  9997,2 51972  53.0934 268.5675 0000973  87.4971 272.6129 15.05588559 68996,6927.837,95.644,550.376,549.028,0.0
51972.0,STARLINK-3671,PAYLOAD,2023-05-29 14:45:28,15.05580077,0.000118,53.0922,267.3758,102.0499,258.0622,-4.5102e-05,-9.36e-06,0.0,0 STARLINK-3671,1 51972U 22025S   23149.61491590 -.00000936  00000-0 -45102-4 0  9995,2 51972  53.0922 267.3758 0001180 102.0499 258.0622 15.05580077 67938,6927.863,95.644,550.545,548.91,0.0
51972.0,STARLINK-3671,PAYLOAD,2023-05-30 08:16:58,15.05586895,9.62e-05,53.0908,264.1051,89.8268,270.2832,5.2856e-05,4.91e-06,0.0,0 STARLINK-3671,1 51972U 22025S   23150.34512081  .00000491  00000-0  52856-4 0  9994,2 51972  53.0908 264.1051 0000962  89.8268 270.2832 15.05586895 69144,6927.842,95.644,550.373,549.04,0.0
51972.0,STARLINK-3671,PAYLOAD,2023-05-30 11:28:09,15.05587379,0.0001075,53.089,263.5089,94.7872,265.324,-5.1827e-05,-1.034e-05,0.0,0 STARLINK-3671,1 51972U 22025S   23150.47788953 -.00001034  00000-0 -51827-4 0  9994,2 51972  53.0890 263.5089 0001075  94.7872 265.3240 15.05587379 68066,6927.84,95.644,550.45,548.961,0.0
51972.0,STARLINK-3671,PAYLOAD,2023-05-30 16:14:56,15.05584251,9.89e-05,53.0888,262.6183,58.2253,301.8832,5.2248e-05,4.82e-06,0.0,0 STARLINK-3671,1 51972U 22025S   23150.67703777  .00000482  00000-0  52248-4 0  9999,2 51972  53.0888 262.6183 0000989  58.2253 301.8832 15.05584251 68091,6927.85,95.644,550.4,549.03,0.0
51972.0,STARLINK-3671,PAYLOAD,2023-05-31 11:22:01,15.0557859,9.93e-05,53.0879,259.0509,72.3142,287.7955,0.00015294,1.95e-05,0.0,0 STARLINK-3671,1 51972U 22025S   23151.47363288  .00001950  00000-0  15294-3 0  9997,2 51972  53.0879 259.0509 0000993  72.3142 287.7955 15.05578590 69315,6927.867,95.644,550.42,549.044,0.0
51972.0,STARLINK-3671,PAYLOAD,2023-05-31 12:57:37,15.0557991,0.000103,53.0881,258.7531,84.8453,275.2654,0.0001523,1.94e-05,0.0,0 STARLINK-3671,1 51972U 22025S   23151.54001544  .00001940  00000-0  15230-3 0  9998,2 51972  53.0881 258.7531 0001030  84.8453 275.2654 15.05579910 68229,6927.863,95.644,550.442,549.015,0.0
51972.0,STARLINK-3671,PAYLOAD,2023-05-31 16:08:48,15.05580381,0.0001038,53.088,258.1582,86.1,274.0107,0.00015138,1.927e-05,0.0,0 STARLINK-3671,1 51972U 22025S   23151.67278138  .00001927  00000-0  15138-3 0  9999,2 51972  53.0880 258.1582 0001038  86.1000 274.0107 15.05580381 68245,6927.862,95.644,550.446,549.008,0.0
51972.0,STARLINK-3671,PAYLOAD,2023-06-01 06:29:07,15.05597347,9.78e-05,53.0872,255.4823,88.7425,271.3676,-7.91e-05,-1.432e-05,0.0,0 STARLINK-3671,1 51972U 22025S   23152.27022195 -.00001432  00000-0 -79100-4 0  9999,2 51972  53.0872 255.4823 0000978  88.7425 271.3676 15.05597347 68336,6927.81,95.643,550.352,548.997,0.0
51972.0,STARLINK-3671,PAYLOAD,2023-06-02 00:00:38,15.05570738,0.0001025,53.0868,252.2102,90.0246,270.0861,0.00017768,2.31e-05,0.0,0 STARLINK-3671,1 51972U 22025S   23153.00044516  .00002310  00000-0  17768-3 0  9997,2 51972  53.0868 252.2102 0001025  90.0246 270.0861 15.05570738 69548,6927.891,95.645,550.466,549.046,0.0
51972.0,STARLINK-3671,PAYLOAD,2023-06-02 12:45:22,15.05578089,0.0001247,53.0849,249.8303,74.2758,285.8368,0.00011187,1.351e-05,0.0,0 STARLINK-3671,1 51972U 22025S   23153.53150494  .00001351  00000-0  11187-3 0  9991,2 51972  53.0849 249.8303 0001247  74.2758 285.8368 15.05578089 68520,6927.869,95.644,550.598,548.87,0.0
51972.0,STARLINK-3671,PAYLOAD,2023-06-03 12:39:14,15.05579363,0.0001142,53.0842,245.37,76.9114,283.2002,3.6844e-05,2.58e-06,0.0,0 STARLINK-3671,1 51972U 22025S   23154.52725010  .00000258  00000-0  36844-4 0  9996,2 51972  53.0842 245.3700 0001142  76.9114 283.2002 15.05579363 68673,6927.865,95.644,550.521,548.939,0.0
51972.0,STARLINK-3671,PAYLOAD,2023-06-04 01:23:57,15.05585005,0.0001199,53.0832,242.9925,82.1815,277.931,0.00010172,1.203e-05,0.0,0 STARLINK-3671,1 51972U 22025S   23155.05830824  .00001203  00000-0  10172-3 0  9991,2 51972  53.0832 242.9925 0001199  82.1815 277.9310 15.05585005 69856,6927.848,95.644,550.543,548.882,0.0
51972.0,STARLINK-3671,PAYLOAD,2023-06-04 10:57:30,15.05577576,8.47e-05,53.0826,241.2075,86.0111,274.0975,0.00030054,4.102e-05,0.0,0 STARLINK-3671,1 51972U 22025S   23155.45660487  .00004102  00000-0  30054-3 0  9993,2 51972  53.0826 241.2075 0000847  86.0111 274.0975 15.05577576 68812,6927.87,95.644,550.322,549.149,0.0
51972.0,STARLINK-3671,PAYLOAD,2023-06-05 04:29:00,15.05585651,9.88e-05,53.0821,237.9355,93.8685,266.2417,0.00014016,1.764e-05,0.0,0 STARLINK-3671,1 51972U 22025S   23156.18681226  .00001764  00000-0  14016-3 0  9999,2 51972  53.0821 237.9355 0000988  93.8685 266.2417 15.05585651 70021,6927.846,95.644,550.395,549.026,0.0
51972.0,STARLINK-3671,PAYLOAD,2023-06-05 10:51:23,15.05574056,0.0001139,53.0819,236.7452,64.7666,295.3441,3.5895e-06,-2.27e-06,0.0,0 STARLINK-3671,1 51972U 22025S   23156.45235630 -.00000227  00000-0  35895-5 0  9997,2 51972  53.0819 236.7452 0001139  64.7666 295.3441 15.05574056 70069,6927.881,95.645,550.535,548.957,0.0
51972.0,STARLINK-3671,PAYLOAD,2023-06-05 12:26:58,15.05580597,0.0001274,53.0795,236.4478,57.8585,302.2527,-6.3451e-06,-3.72e-06,0.0,0 STARLINK-3671,1 51972U 22025S   23156.51873621 -.00000372  00000-0 -63451-5 0  9993,2 51972  53.0795 236.4478 0001274  57.8585 302.2527 15.05580597 68977,6927.861,95.644,550.609,548.843,0.0
51972.0,STARLINK-3671,PAYLOAD,2023-06-05 15:38:09,15.05582419,0.0001273,53.0793,235.8524,58.7026,301.4088,8.8734e-06,-1.5e-06,0.0,0 STARLINK-3671,1 51972U 22025S   23156.65150033 -.00000150  00000-0  88734-5 0  9997,2 51972  53.0793 235.8524 0001273  58.7026 301.4088 15.05582419 70093,6927.855,95.644,550.602,548.839,0.0
51972.0,STARLINK-3671,PAYLOAD,2023-06-06 12:20:50,15.05582938,0.0001471,53.0786,231.9851,89.5499,270.5658,5.0889e-05,4.62e-06,0.0,0 STARLINK-3671,1 51972U 22025S   23157.51447692  .00000462  00000-0  50889-4 0  9997,2 51972  53.0786 231.9851 0001471  89.5499 270.5658 15.05582938 69128,6927.854,95.644,550.738,548.7,0.0
51972.0,STARLINK-3671,PAYLOAD,2023-06-07 05:52:20,15.05601534,0.0001359,53.0782,228.7131,90.3768,269.7376,-0.00013204,-2.203e-05,0.0,0 STARLINK-3671,1 51972U 22025S   23158.24467825 -.00002203  00000-0 -13204-3 0  9994,2 51972  53.0782 228.7131 0001359  90.3768 269.7376 15.05601534 70339,6927.797,95.643,550.603,548.72,0.0
51972.0,STARLINK-3671,PAYLOAD,2023-06-07 09:03:31,15.05587059,0.0001166,53.0785,228.1179,91.5342,268.5781,5.5138e-05,5.24e-06,0.0,0 STARLINK-3671,1 51972U 22025S   23158.37744926  .00000524  00000-0  55138-4 0  9993,2 51972  53.0785 228.1179 0001166  91.5342 268.5781 15.05587059 69256,6927.841,95.644,550.514,548.898,0.0
51972.0,STARLINK-3671,PAYLOAD,2023-06-08 10:32:58,15.05613259,0.0001026,53.0774,223.3594,70.5112,289.5988,-0.0003764,-5.763e-05,0.0,0 STARLINK-3671,1 51972U 22025S   23159.43956716 -.00005763  00000-0 -37640-3 0  9992,2 51972  53.0774 223.3594 0001026  70.5112 289.5988 15.05613259 69411,6927.761,95.642,550.337,548.915,0.0
51972.0,STARLINK-3671,PAYLOAD,2023-06-09 10:26:51,15.05571453,4.96e-05,53.0756,218.8922,106.4009,253.7034,0.0001827,2.383e-05,0.0,0 STARLINK-3671,1 51972U 22025S   23160.43532231  .00002383  00000-0  18270-3 0  9997,2 51972  53.0756 218.8922 0000496 106.4009 253.7034 15.05571453 70662,6927.889,95.645,550.098,549.41,0.0
51972.0,STARLINK-3671,PAYLOAD,2023-06-10 03:58:21,15.05585544,0.0001032,53.0752,215.6207,97.624,262.4866,4.5801e-05,3.88e-06,0.0,0 STARLINK-3671,1 51972U 22025S   23161.16552789  .00000388  00000-0  45801-4 0  9992,2 51972  53.0752 215.6207 0001032  97.6240 262.4866 15.05585544 70772,6927.846,95.644,550.426,548.996,0.0
51972.0,STARLINK-3671,PAYLOAD,2023-06-10 13:31:54,15.05585391,0.0001024,53.0752,213.8378,90.3169,269.7938,4.4441e-05,3.69e-06,0.0,0 STARLINK-3671,1 51972U 22025S   23161.56382483  .00000369  00000-0  44441-4 0  9996,2 51972  53.0752 213.8378 0001024  90.3169 269.7938 15.05585391 69736,6927.846,95.644,550.421,549.002,0.0
51972.0,STARLINK-3671,PAYLOAD,2023-06-11 11:50:11,15.05578769,0.0001073,53.0738,209.6738,90.2931,269.818,9.4972e-05,1.105e-05,0.0,0 STARLINK-3671,1 51972U 22025S   23162.49318890  .00001105  00000-0  94972-4 0  9993,2 51972  53.0738 209.6738 0001073  90.2931 269.8180 15.05578769 70972,6927.867,95.644,550.475,548.988,0.0
51972.0,STARLINK-3671,PAYLOAD,2023-06-11 19:48:09,15.05578863,0.00011,53.072,208.1879,91.0757,269.0358,7.5207e-05,8.17e-06,0.0,0 STARLINK-3671,1 51972U 22025S   23162.82510507  .00000817  00000-0  75207-4 0  9998,2 51972  53.0720 208.1879 0001100  91.0757 269.0358 15.05578863 69926,6927.866,95.644,550.493,548.969,0.0
